NORAD_CAT_ID,OBJECT_NAME,OBJECT_TYPE,EPOCH,MEAN_MOTION,ECCENTRICITY,INCLINATION,RA_OF_ASC_NODE,ARG_OF_PERICENTER,MEAN_ANOMALY,BSTAR,MEAN_MOTION_DOT,MEAN_MOTION_DDOT,TLE_LINE0,TLE_LINE1,TLE_LINE2,SEMIMAJOR_AXIS,PERIOD,APOGEE,PERIGEE,DECAYED
53914.0,STARLINK-5040,PAYLOAD,2022-10-24 20:00:01,15.7318811,0.0001399,53.2149,105.1693,55.5614,203.9513,0.00028848,0.00040039,0.0,0 STARLINK-5040,1 53914U 22119AE  22297.83334491  .00040039  00000-0  28848-3 0  9993,2 53914  53.2149 105.1693 0001399  55.5614 203.9513 15.73188110  5138,6727.929,91.534,350.735,348.853,0.0
53914.0,STARLINK-5040,PAYLOAD,2022-10-24 22:00:00,15.73204283,0.0001696,53.2149,104.7542,59.3947,312.3228,9.4341e-05,0.00012642,0.0,0 STARLINK-5040,1 53914U 22119AE  22297.91667824  .00012642  00000-0  94341-4 0  9992,2 53914  53.2149 104.7542 0001696  59.3947 312.3228 15.73204283  1300,6727.8830000000025,91.533,350.889,348.607,0.0
53914.0,STARLINK-5040,PAYLOAD,2022-10-25 04:00:00,15.73067746,0.0001823,53.2167,103.5015,66.1358,282.2453,0.0015126,0.00215986,0.0,0 STARLINK-5040,1 53914U 22119AE  22298.16667824  .00215986  00000-0  15126-2 0  9998,2 53914  53.2167 103.5015 0001823  66.1358 282.2453 15.73067746  5182,6728.272,91.541,351.36400000000015,348.911,0.0
53914.0,STARLINK-5040,PAYLOAD,2022-10-25 14:00:01,15.7324843,0.0001334,53.2149,101.4564,60.7673,128.7755,-0.0005286,-0.00074307,0.0,0 STARLINK-5040,1 53914U 22119AE  22298.58334491 -.00074307  00000-0 -52860-3 0  9994,2 53914  53.2149 101.4564 0001334  60.7673 128.7755 15.73248430  1305,6727.757,91.53,350.52,348.725,0.0
53914.0,STARLINK-5040,PAYLOAD,2022-10-25 20:00:01,15.73192212,0.0001446,53.2151,100.2206,50.6136,115.654,0.00012422,0.00016842,0.0,0 STARLINK-5040,1 53914U 22119AE  22298.83334491  .00016842  00000-0  12422-3 0  9990,2 53914  53.2151 100.2206 0001446  50.6136 115.6540 15.73192212  5299,6727.917,91.534,350.755,348.81,0.0
53914.0,STARLINK-5040,PAYLOAD,2022-10-25 22:00:01,15.73198349,0.000143,53.215,99.8083,47.6884,230.8745,2.4321e-05,2.794e-05,0.0,0 STARLINK-5040,1 53914U 22119AE  22298.91668981  .00002794  00000-0  24321-4 0  9996,2 53914  53.2150  99.8083 0001430  47.6884 230.8745 15.73198349  1305,6727.9,91.533,350.727,348.80300000000005,0.0
53914.0,STARLINK-5040,PAYLOAD,2022-10-26 14:00:01,15.73247565,0.0001518,53.2154,96.5079,54.7328,41.6095,-0.00016026,-0.00023096,0.0,0 STARLINK-5040,1 53914U 22119AE  22299.58334491 -.00023096  00000-0 -16026-3 0  9998,2 53914  53.2154  96.5079 0001518  54.7328  41.6095 15.73247565  1308,6727.76,91.53,350.646,348.603,0.0
53914.0,STARLINK-5040,PAYLOAD,2022-10-26 20:00:01,15.73239143,0.0001608,53.2153,95.272,47.1164,25.9619,-0.00045059,-0.0006349,0.0,0 STARLINK-5040,1 53914U 22119AE  22299.83334491 -.00063490  00000-0 -45059-3 0  9996,2 53914  53.2153  95.2720 0001608  47.1164  25.9619 15.73239143  5450,6727.784000000002,91.531,350.73,348.56699999999995,0.0
53914.0,STARLINK-5040,PAYLOAD,2022-10-26 22:00:00,15.732184,0.0001599,53.2149,94.8596,45.5738,139.7511,-0.00032744,-0.00046359,0.0,0 STARLINK-5040,1 53914U 22119AE  22299.91667824 -.00046359  00000-0 -32744-3 0  9996,2 53914  53.2149  94.8596 0001599  45.5738 139.7511 15.73218400  1307,6727.843000000003,91.532,350.783,348.63199999999995,0.0
53914.0,STARLINK-5040,PAYLOAD,2022-10-27 14:00:01,15.72964967,0.0001456,53.2167,91.5426,63.3613,299.9318,0.0024099,0.00348496,0.0,0 STARLINK-5040,1 53914U 22119AE  22300.58335648  .00348496  00000-0  24099-2 0  9996,2 53914  53.2167  91.5426 0001456  63.3613 299.9318 15.72964967  1304,6728.565,91.547,351.41,349.451,0.0
53914.0,STARLINK-5040,PAYLOAD,2022-10-27 18:00:00,15.73195522,0.0001498,53.2172,90.7162,60.5254,167.0299,0.00011399,0.00015404,0.0,0 STARLINK-5040,1 53914U 22119AE  22300.75001157  .00015404  00000-0  11399-3 0  9990,2 53914  53.2172  90.7162 0001498  60.5254 167.0299 15.73195522  5596,6727.908,91.533,350.781,348.765,0.0
53914.0,STARLINK-5040,PAYLOAD,2022-10-27 22:00:00,15.73205888,0.0001634,53.2155,89.9111,36.6586,55.4224,0.00028061,0.00038955,0.0,0 STARLINK-5040,1 53914U 22119AE  22300.91667824  .00038955  00000-0  28061-3 0  9997,2 53914  53.2155  89.9111 0001634  36.6586  55.4224 15.73205888  1305,6727.878000000002,91.533,350.843,348.644,0.0
53914.0,STARLINK-5040,PAYLOAD,2022-10-28 06:00:00,15.73179061,0.000159,53.2159,88.2595,44.905,136.1411,0.00043514,0.00060838,0.0,0 STARLINK-5040,1 53914U 22119AE  22301.25001157  .00060838  00000-0  43514-3 0  9991,2 53914  53.2159  88.2595 0001590  44.9050 136.1411 15.73179061  5678,6727.955,91.534,350.89,348.75,0.0
53914.0,STARLINK-5040,PAYLOAD,2022-10-28 14:00:01,15.7321043,0.0001874,53.216,86.6111,47.0134,223.0299,-4.9633e-05,-7.584e-05,0.0,0 STARLINK-5040,1 53914U 22119AE  22301.58335648 -.00007584  00000-0 -49633-4 0  9992,2 53914  53.2160  86.6111 0001874  47.0134 223.0299 15.73210430  1300,6727.865,91.533,350.991,348.47,0.0
53914.0,STARLINK-5040,PAYLOAD,2022-10-28 22:00:01,15.732104,0.0001909999999999,53.2154,84.9625,39.1324,319.8474,-9.9234e-05,-0.00014531,0.0,0 STARLINK-5040,1 53914U 22119AE  22301.91668981 -.00014531  00000-0 -99234-4 0  9990,2 53914  53.2154  84.9625 0001910  39.1324 319.8474 15.73210400  5779,6727.866,91.533,351.016,348.446,0.0
53914.0,STARLINK-5040,PAYLOAD,2022-10-29 12:00:00,15.73213943,0.00016,53.2159,82.0747,36.5258,28.0302,0.00044218,0.00061934,0.0,0 STARLINK-5040,1 53914U 22119AE  22302.50001157  .00061934  00000-0  44218-3 0  9990,2 53914  53.2159  82.0747 0001600  36.5258  28.0302 15.73213943  1300,6727.855,91.532,350.797,348.644,0.0
53914.0,STARLINK-5040,PAYLOAD,2022-10-29 22:00:01,15.73285058,0.0001867,53.2158,80.0141,30.83,235.0083,-0.00035916,-0.00050909,0.0,0 STARLINK-5040,1 53914U 22119AE  22302.91668981 -.00050909  00000-0 -35916-3 0  9996,2 53914  53.2158  80.0141 0001867  30.8300 235.0083 15.73285058  1307,6727.653,91.528,350.774,348.26199999999994,0.0
53914.0,STARLINK-5040,PAYLOAD,2022-10-30 00:00:00,15.73290806,0.0001862,53.2159,79.6012,31.8382,346.1874,-0.0006011,-0.00084472,0.0,0 STARLINK-5040,1 53914U 22119AE  22303.00001157 -.00084472  00000-0 -60110-3 0  9999,2 53914  53.2159  79.6012 0001862  31.8382 346.1874 15.73290806  5948,6727.636,91.528,350.754,348.249,0.0
53914.0,STARLINK-5040,PAYLOAD,2022-10-30 14:00:01,15.732112699999998,0.0001940999999999,53.2161,76.7144,32.0533,51.6745,-0.00094377,-0.00131104,0.0,0 STARLINK-5040,1 53914U 22119AE  22303.58334491 -.00131104  00000-0 -94377-3 0  9999,2 53914  53.2161  76.7144 0001941  32.0533  51.6745 15.73211270  1303,6727.863,91.533,351.034,348.422,0.0
53914.0,STARLINK-5040,PAYLOAD,2022-10-30 22:00:01,15.7309951,0.0001974,53.2155,75.0654,23.9948,148.6887,0.00047026,0.00065613,0.0,0 STARLINK-5040,1 53914U 22119AE  22303.91668981  .00065613  00000-0  47026-3 0  9998,2 53914  53.2155  75.0654 0001974  23.9948 148.6887 15.73099510  1304,6728.182,91.539,351.375,348.719,0.0
53914.0,STARLINK-5040,PAYLOAD,2022-10-31 14:00:01,15.73154239,0.0002049,53.2158,71.7664,29.493,320.8459,0.00033082,0.00045974,0.0,0 STARLINK-5040,1 53914U 22119AE  22304.58334491  .00045974  00000-0  33082-3 0  9993,2 53914  53.2158  71.7664 0002049  29.4930 320.8459 15.73154239  1306,6728.026,91.536,351.269,348.51199999999994,0.0
53914.0,STARLINK-5040,PAYLOAD,2022-10-31 20:00:01,15.7318972,0.0002161,53.2158,70.5301,23.9783,303.0907,8.5824e-05,0.00011436,0.0,0 STARLINK-5040,1 53914U 22119AE  22304.83335648  .00011436  00000-0  85824-4 0  9994,2 53914  53.2158  70.5301 0002161  23.9783 303.0907 15.73189720  6232,6727.924,91.534,351.24300000000005,348.336,0.0
53914.0,STARLINK-5040,PAYLOAD,2022-10-31 22:00:01,15.73201497,0.0002145999999999,53.2157,70.1171,23.6435,55.6525,-7.1583e-05,-0.00010656,0.0,0 STARLINK-5040,1 53914U 22119AE  22304.91668981 -.00010656  00000-0 -71583-4 0  9994,2 53914  53.2157  70.1171 0002146  23.6435  55.6525 15.73201497  1301,6727.891,91.533,351.2,348.31199999999984,0.0
53914.0,STARLINK-5040,PAYLOAD,2022-11-01 14:00:01,15.73202969,0.0002303,53.216,66.8178,27.8273,229.2729,0.00025634,0.00035514,0.0,0 STARLINK-5040,1 53914U 22119AE  22305.58334491  .00035514  00000-0  25634-3 0  9997,2 53914  53.2160  66.8178 0002303  27.8273 229.2729 15.73202969  1305,6727.887,91.533,351.301,348.202,0.0
53914.0,STARLINK-5040,PAYLOAD,2022-11-01 22:00:00,15.73259012,0.0002299999999999,53.2155,65.1682,21.6217,324.4207,-0.00072812,-0.00101852,0.0,0 STARLINK-5040,1 53914U 22119AE  22305.91667824 -.00101852  00000-0 -72812-3 0  9994,2 53914  53.2155  65.1682 0002300  21.6217 324.4207 15.73259012  1308,6727.727,91.53,351.139,348.045,0.0
53914.0,STARLINK-5040,PAYLOAD,2022-11-02 06:00:00,15.73180803,0.0002106,53.2156,63.5169,22.6503,52.3525,-1.563e-05,-2.812e-05,0.0,0 STARLINK-5040,1 53914U 22119AE  22306.25001157 -.00002812  00000-0 -15630-4 0  9995,2 53914  53.2156  63.5169 0002106  22.6503  52.3525 15.73180803  6467,6727.95,91.534,351.232,348.398,0.0
53914.0,STARLINK-5040,PAYLOAD,2022-11-02 14:00:01,15.73166516,0.0002428,53.2161,61.8677,23.3982,140.5124,0.00043499,0.00060788,0.0,0 STARLINK-5040,1 53914U 22119AE  22306.58334491  .00060788  00000-0  43499-3 0  9998,2 53914  53.2161  61.8677 0002428  23.3982 140.5124 15.73166516  1302,6727.991,91.535,351.48900000000015,348.222,0.0
53914.0,STARLINK-5040,PAYLOAD,2022-11-02 18:00:02,15.73167845,0.0002528999999999,53.2162,61.0386,24.1064,4.3272,0.00084771,0.00119906,0.0,0 STARLINK-5040,1 53914U 22119AE  22306.75002315  .00119906  00000-0  84771-3 0  9999,2 53914  53.2162  61.0386 0002529  24.1064   4.3272 15.73167845  6542,6727.986999999999,91.535,351.55300000000005,348.15,0.0
53914.0,STARLINK-5040,PAYLOAD,2022-11-02 22:00:00,15.73247374,0.0002449,53.2158,60.2195,20.9615,231.8289,-1.9298e-05,-3.336e-05,0.0,0 STARLINK-5040,1 53914U 22119AE  22306.91667824 -.00003336  00000-0 -19298-4 0  9993,2 53914  53.2158  60.2195 0002449  20.9615 231.8289 15.73247374  1303,6727.76,91.53,351.273,347.977,0.0
